{
    "links": {
        "self": "http://www.neowsapp.com/rest/v1/neo/3837980?api_key=iIulBulltgU6a56xZRHN4H3l9WmuAYTsLGpBGhQ2"
    },
    "id": "3837980",
    "neo_reference_id": "3837980",
    "name": "(2019 BU1)",
    "designation": "2019 BU1",
    "nasa_jpl_url": "http://ssd.jpl.nasa.gov/sbdb.cgi?sstr=3837980",
    "absolute_magnitude_h": 26.2,
    "estimated_diameter": {
        "kilometers": {
            "estimated_diameter_min": 0.0152951935,
            "estimated_diameter_max": 0.0342010925
        },
        "meters": {
            "estimated_diameter_min": 15.2951935344,
            "estimated_diameter_max": 34.201092472
        },
        "miles": {
            "estimated_diameter_min": 0.0095039897,
            "estimated_diameter_max": 0.021251567
        },
        "feet": {
            "estimated_diameter_min": 50.1810827555,
            "estimated_diameter_max": 112.2083122258
        }
    },
    "is_potentially_hazardous_asteroid": false,
    "close_approach_data": [
        {
            "close_approach_date": "1967-02-04",
            "close_approach_date_full": "1967-Feb-04 15:42",
            "epoch_date_close_approach": -91700280000,
            "relative_velocity": {
                "kilometers_per_second": "20.9851878135",
                "kilometers_per_hour": "75546.6761285539",
                "miles_per_hour": "46941.7666199895"
            },
            "miss_distance": {
                "astronomical": "0.2229821629",
                "lunar": "86.7400613681",
                "kilometers": "33357656.617833023",
                "miles": "20727486.6759927974"
            },
            "orbiting_body": "Earth"
        },
        {
            "close_approach_date": "2014-02-10",
            "close_approach_date_full": "2014-Feb-10 03:06",
            "epoch_date_close_approach": 1392001560000,
            "relative_velocity": {
                "kilometers_per_second": "23.9152515392",
                "kilometers_per_hour": "86094.9055410815",
                "miles_per_hour": "53496.0261680125"
            },
            "miss_distance": {
                "astronomical": "0.3209839982",
                "lunar": "124.8627752998",
                "kilometers": "48018522.434803834",
                "miles": "29837326.2657835492"
            },
            "orbiting_body": "Earth"
        },
        {
            "close_approach_date": "2019-01-22",
            "close_approach_date_full": "2019-Jan-22 12:28",
            "epoch_date_close_approach": 1548160080000,
            "relative_velocity": {
                "kilometers_per_second": "14.6274588789",
                "kilometers_per_hour": "52658.8519640162",
                "miles_per_hour": "32720.1627661966"
            },
            "miss_distance": {
                "astronomical": "0.0076635702",
                "lunar": "2.9811288078",
                "kilometers": "1146453.778515474",
                "miles": "712373.3447785812"
            },
            "orbiting_body": "Earth"
        },
        {
            "close_approach_date": "2019-01-22",
            "close_approach_date_full": "2019-Jan-22 17:25",
            "epoch_date_close_approach": 1548177900000,
            "relative_velocity": {
                "kilometers_per_second": "14.8035128719",
                "kilometers_per_hour": "53292.6463389829",
                "miles_per_hour": "33113.9779432419"
            },
            "miss_distance": {
                "astronomical": "0.008043145",
                "lunar": "3.128783405",
                "kilometers": "1203237.36010115",
                "miles": "747657.02624987"
            },
            "orbiting_body": "Moon"
        }
    ],
    "orbital_data": {
        "orbit_id": "8",
        "orbit_determination_date": "2019-02-12 06:54:22",
        "first_observation_date": "2019-01-25",
        "last_observation_date": "2019-02-09",
        "data_arc_in_days": 15,
        "observations_used": 61,
        "orbit_uncertainty": "7",
        "minimum_orbit_intersection": ".00131894",
        "jupiter_tisserand_invariant": "3.796",
        "epoch_osculation": "2459000.5",
        "eccentricity": ".5737023468494443",
        "semi_major_axis": "1.841252698405282",
        "inclination": "5.41867022965069",
        "ascending_node_longitude": "121.9103231772909",
        "orbital_period": "912.5749038736166",
        "perihelion_distance": ".7849217041872998",
        "perihelion_argument": "295.5630606077332",
        "aphelion_distance": "2.897583692623265",
        "perihelion_time": "2459376.129421890394",
        "mean_anomaly": "211.8186383314464",
        "mean_motion": ".394488165817298",
        "equinox": "J2000",
        "orbit_class": {
            "orbit_class_type": "APO",
            "orbit_class_description": "Near-Earth asteroid orbits which cross the Earth’s orbit similar to that of 1862 Apollo",
            "orbit_class_range": "a (semi-major axis) > 1.0 AU; q (perihelion) < 1.017 AU"
        }
    },
    "is_sentry_object": false
}